<?xml version="1.0" encoding="UTF-8"?>
<kml xmlns="http://www.opengis.net/kml/2.2">
  <Document>
    <name>雫石町クマ出没情報（Ｒ８）</name>
    <description>岩手県雫石町内でのクマ出没情報を記したものです。</description>
    <Style id="icon-1899-0288D1-normal">
      <IconStyle>
        <color>ffd18802</color>
        <scale>1</scale>
        <Icon>
          <href>https://www.gstatic.com/mapspro/images/stock/503-wht-blank_maps.png</href>
        </Icon>
        <hotSpot x="32" xunits="pixels" y="64" yunits="insetPixels"/>
      </IconStyle>
      <LabelStyle>
        <scale>0</scale>
      </LabelStyle>
    </Style>
    <Style id="icon-1899-0288D1-highlight">
      <IconStyle>
        <color>ffd18802</color>
        <scale>1</scale>
        <Icon>
          <href>https://www.gstatic.com/mapspro/images/stock/503-wht-blank_maps.png</href>
        </Icon>
        <hotSpot x="32" xunits="pixels" y="64" yunits="insetPixels"/>
      </IconStyle>
      <LabelStyle>
        <scale>1</scale>
      </LabelStyle>
    </Style>
    <StyleMap id="icon-1899-0288D1">
      <Pair>
        <key>normal</key>
        <styleUrl>#icon-1899-0288D1-normal</styleUrl>
      </Pair>
      <Pair>
        <key>highlight</key>
        <styleUrl>#icon-1899-0288D1-highlight</styleUrl>
      </Pair>
    </StyleMap>
    <Style id="icon-1899-FFEA00-normal">
      <IconStyle>
        <color>ff00eaff</color>
        <scale>1</scale>
        <Icon>
          <href>https://www.gstatic.com/mapspro/images/stock/503-wht-blank_maps.png</href>
        </Icon>
        <hotSpot x="32" xunits="pixels" y="64" yunits="insetPixels"/>
      </IconStyle>
      <LabelStyle>
        <scale>0</scale>
      </LabelStyle>
    </Style>
    <Style id="icon-1899-FFEA00-highlight">
      <IconStyle>
        <color>ff00eaff</color>
        <scale>1</scale>
        <Icon>
          <href>https://www.gstatic.com/mapspro/images/stock/503-wht-blank_maps.png</href>
        </Icon>
        <hotSpot x="32" xunits="pixels" y="64" yunits="insetPixels"/>
      </IconStyle>
      <LabelStyle>
        <scale>1</scale>
      </LabelStyle>
    </Style>
    <StyleMap id="icon-1899-FFEA00">
      <Pair>
        <key>normal</key>
        <styleUrl>#icon-1899-FFEA00-normal</styleUrl>
      </Pair>
      <Pair>
        <key>highlight</key>
        <styleUrl>#icon-1899-FFEA00-highlight</styleUrl>
      </Pair>
    </StyleMap>
    <Folder>
      <name>Ｒ8クマ出没情報（Ｒ8.9月）</name>
    </Folder>
    <Folder>
      <name>Ｒ8クマ出没状況（Ｒ8.6～8月）</name>
      <Placemark>
        <name>6月1日 7時30分</name>
        <description><![CDATA[付近での目撃情報<br>幼獣1頭]]></description>
        <styleUrl>#icon-1899-0288D1</styleUrl>
        <Point>
          <coordinates>
            140.9978557,39.6639751,0
          </coordinates>
        </Point>
      </Placemark>
      <Placemark>
        <name>6月1日 10時20分</name>
        <description><![CDATA[付近での目撃情報<br>成獣1頭]]></description>
        <styleUrl>#icon-1899-0288D1</styleUrl>
        <Point>
          <coordinates>
            140.9646243,39.7557093,0
          </coordinates>
        </Point>
      </Placemark>
      <Placemark>
        <name>6月4日 7時10分</name>
        <description><![CDATA[付近での目撃情報<br>幼獣1頭]]></description>
        <styleUrl>#icon-1899-0288D1</styleUrl>
        <Point>
          <coordinates>
            141.0118432,39.7055016,0
          </coordinates>
        </Point>
      </Placemark>
      <Placemark>
        <name>6月4日 11時00分</name>
        <description><![CDATA[付近での目撃情報<br>成獣1頭]]></description>
        <styleUrl>#icon-1899-0288D1</styleUrl>
        <Point>
          <coordinates>
            140.9816756,39.7231948,0
          </coordinates>
        </Point>
      </Placemark>
      <Placemark>
        <name>6月4日 14時10分</name>
        <description><![CDATA[付近での目撃情報<br>成獣1頭<br>南方面へ移動中]]></description>
        <styleUrl>#icon-1899-0288D1</styleUrl>
        <Point>
          <coordinates>
            140.9741087,39.7100251,0
          </coordinates>
        </Point>
      </Placemark>
      <Placemark>
        <name>6月5日 5時00分</name>
        <description><![CDATA[付近での目撃情報<br>成獣1頭]]></description>
        <styleUrl>#icon-1899-0288D1</styleUrl>
        <Point>
          <coordinates>
            140.9648123,39.6321081,0
          </coordinates>
        </Point>
      </Placemark>
      <Placemark>
        <name>6月6日 10時50分</name>
        <description><![CDATA[付近での目撃情報<br>幼獣1頭]]></description>
        <styleUrl>#icon-1899-0288D1</styleUrl>
        <Point>
          <coordinates>
            140.9860112,39.6638858,0
          </coordinates>
        </Point>
      </Placemark>
      <Placemark>
        <name>6月6日 15時30分</name>
        <description><![CDATA[付近での目撃情報<br>成獣1頭]]></description>
        <styleUrl>#icon-1899-0288D1</styleUrl>
        <Point>
          <coordinates>
            140.9620946,39.7452963,0
          </coordinates>
        </Point>
      </Placemark>
      <Placemark>
        <name>6月6日 18時10分</name>
        <description><![CDATA[付近での目撃情報<br>成獣1頭<br>県道南へ移動中]]></description>
        <styleUrl>#icon-1899-0288D1</styleUrl>
        <Point>
          <coordinates>
            140.9480099,39.6237741,0
          </coordinates>
        </Point>
      </Placemark>
      <Placemark>
        <name>6月7日 13時20分</name>
        <description><![CDATA[付近での目撃情報<br>幼獣1頭]]></description>
        <styleUrl>#icon-1899-0288D1</styleUrl>
        <Point>
          <coordinates>
            140.9219598,39.6875048,0
          </coordinates>
        </Point>
      </Placemark>
      <Placemark>
        <name>6月7日 16時50分</name>
        <description><![CDATA[付近での目撃情報<br>幼獣1頭<br>川岸方向へ移動]]></description>
        <styleUrl>#icon-1899-0288D1</styleUrl>
        <Point>
          <coordinates>
            140.9420446,39.6899566,0
          </coordinates>
        </Point>
      </Placemark>
      <Placemark>
        <name>6月8日  4時30分</name>
        <description><![CDATA[付近での目撃情報<br>成獣1頭]]></description>
        <styleUrl>#icon-1899-0288D1</styleUrl>
        <Point>
          <coordinates>
            140.9849674,39.6587691,0
          </coordinates>
        </Point>
      </Placemark>
      <Placemark>
        <name>6月8日 18時00分</name>
        <description><![CDATA[付近での目撃情報<br>幼獣1頭]]></description>
        <styleUrl>#icon-1899-0288D1</styleUrl>
        <Point>
          <coordinates>
            140.9108234,39.686877,0
          </coordinates>
        </Point>
      </Placemark>
      <Placemark>
        <name>6月8日 14時40分</name>
        <description><![CDATA[付近での目撃情報<br>成獣1頭<br>東側の藪へ移動]]></description>
        <styleUrl>#icon-1899-0288D1</styleUrl>
        <Point>
          <coordinates>
            140.9442188,39.742188,0
          </coordinates>
        </Point>
      </Placemark>
      <Placemark>
        <name>6月9日 17時40分</name>
        <description><![CDATA[付近での目撃情報<br>親子クマ（成獣1頭、幼獣2頭）]]></description>
        <styleUrl>#icon-1899-0288D1</styleUrl>
        <Point>
          <coordinates>
            140.9060798,39.7001564,0
          </coordinates>
        </Point>
      </Placemark>
      <Placemark>
        <name>6月11日 17時00分</name>
        <description><![CDATA[付近での目撃情報<br>成獣1頭]]></description>
        <styleUrl>#icon-1899-0288D1</styleUrl>
        <Point>
          <coordinates>
            140.9715037,39.6682983,0
          </coordinates>
        </Point>
      </Placemark>
      <Placemark>
        <name>6月12日 16時00分</name>
        <description><![CDATA[付近での目撃情報<br>成獣1頭]]></description>
        <styleUrl>#icon-1899-0288D1</styleUrl>
        <Point>
          <coordinates>
            140.9478918,39.6908966,0
          </coordinates>
        </Point>
      </Placemark>
      <Placemark>
        <name>6月13日 16時20分</name>
        <description><![CDATA[付近での目撃情報<br>幼獣1頭]]></description>
        <styleUrl>#icon-1899-0288D1</styleUrl>
        <Point>
          <coordinates>
            140.9979629,39.6639462,0
          </coordinates>
        </Point>
      </Placemark>
      <Placemark>
        <name>6月14日 9時20分</name>
        <description><![CDATA[付近での目撃情報<br>成獣1頭（大きさ1ｍ位）<br>南側の林に移動した]]></description>
        <styleUrl>#icon-1899-0288D1</styleUrl>
        <Point>
          <coordinates>
            140.9402721,39.7257368,0
          </coordinates>
        </Point>
      </Placemark>
      <Placemark>
        <name>6月14日 12時30分</name>
        <description><![CDATA[付近での目撃情報<br>成獣1頭]]></description>
        <styleUrl>#icon-1899-0288D1</styleUrl>
        <Point>
          <coordinates>
            141.0035926,39.7546911,0
          </coordinates>
        </Point>
      </Placemark>
      <Placemark>
        <name>6月15日 4時45分</name>
        <description><![CDATA[付近での目撃情報<br>幼獣1頭<br>木の上に居た]]></description>
        <styleUrl>#icon-1899-0288D1</styleUrl>
        <Point>
          <coordinates>
            140.9335463,39.7314847,0
          </coordinates>
        </Point>
      </Placemark>
      <Placemark>
        <name>6月15日 12時00分</name>
        <description><![CDATA[付近での目撃情報<br>成獣1頭]]></description>
        <styleUrl>#icon-1899-0288D1</styleUrl>
        <Point>
          <coordinates>
            140.9419235,39.7239451,0
          </coordinates>
        </Point>
      </Placemark>
      <Placemark>
        <name>6月15日 7時30分</name>
        <description><![CDATA[付近での目撃情報<br>幼獣1頭]]></description>
        <styleUrl>#icon-1899-0288D1</styleUrl>
        <Point>
          <coordinates>
            140.9977478,39.6639575,0
          </coordinates>
        </Point>
      </Placemark>
      <Placemark>
        <name>6月15日 19時05分</name>
        <description><![CDATA[付近での目撃情報<br>成獣1頭]]></description>
        <styleUrl>#icon-1899-0288D1</styleUrl>
        <Point>
          <coordinates>
            140.9282302,39.6997645,0
          </coordinates>
        </Point>
      </Placemark>
      <Placemark>
        <name>6月17日 18時50分</name>
        <description><![CDATA[付近での目撃情報<br>成獣1頭<br>国道46号線横断して七ツ森の山中へ]]></description>
        <styleUrl>#icon-1899-0288D1</styleUrl>
        <Point>
          <coordinates>
            141.0008706,39.6898842,0
          </coordinates>
        </Point>
      </Placemark>
      <Placemark>
        <name>6月18日 15時15分</name>
        <description><![CDATA[付近での目撃情報<br>幼獣1頭]]></description>
        <styleUrl>#icon-1899-0288D1</styleUrl>
        <Point>
          <coordinates>
            140.9844657,39.7470673,0
          </coordinates>
        </Point>
      </Placemark>
      <Placemark>
        <name>6月19日 5時50分</name>
        <description><![CDATA[付近での目撃情報<br>成獣1頭]]></description>
        <styleUrl>#icon-1899-0288D1</styleUrl>
        <Point>
          <coordinates>
            140.9638133,39.7439375,0
          </coordinates>
        </Point>
      </Placemark>
      <Placemark>
        <name>6月21日 8時20分</name>
        <description><![CDATA[付近での目撃情報<br>成獣1頭]]></description>
        <styleUrl>#icon-1899-0288D1</styleUrl>
        <Point>
          <coordinates>
            140.9784394,39.7374614,0
          </coordinates>
        </Point>
      </Placemark>
      <Placemark>
        <name>6月21日 10時20分</name>
        <description><![CDATA[付近での目撃情報<br>親子クマ（成獣1頭、幼獣1頭）]]></description>
        <styleUrl>#icon-1899-0288D1</styleUrl>
        <Point>
          <coordinates>
            140.977091,39.7624684,0
          </coordinates>
        </Point>
      </Placemark>
      <Placemark>
        <name>6月21日 14時50分</name>
        <description><![CDATA[付近での目撃情報<br>成獣1頭]]></description>
        <styleUrl>#icon-1899-0288D1</styleUrl>
        <Point>
          <coordinates>
            140.9480747,39.6908786,0
          </coordinates>
        </Point>
      </Placemark>
      <Placemark>
        <name>6月22日 4時00分</name>
        <description><![CDATA[付近での目撃情報<br>成獣1頭<br>移動中]]></description>
        <styleUrl>#icon-1899-0288D1</styleUrl>
        <Point>
          <coordinates>
            140.9461114,39.6925017,0
          </coordinates>
        </Point>
      </Placemark>
      <Placemark>
        <name>6月22日 12時00分</name>
        <description><![CDATA[付近での目撃情報<br>成獣1頭]]></description>
        <styleUrl>#icon-1899-0288D1</styleUrl>
        <Point>
          <coordinates>
            140.9488626,39.6907642,0
          </coordinates>
        </Point>
      </Placemark>
      <Placemark>
        <name>6月23日 7時30分</name>
        <description><![CDATA[付近での目撃情報<br>成獣1頭]]></description>
        <styleUrl>#icon-1899-0288D1</styleUrl>
        <Point>
          <coordinates>
            140.8845756,39.6987509,0
          </coordinates>
        </Point>
      </Placemark>
      <Placemark>
        <name>6月23日 18時45分</name>
        <description><![CDATA[付近での目撃情報<br>成獣1頭]]></description>
        <styleUrl>#icon-1899-0288D1</styleUrl>
        <Point>
          <coordinates>
            141.0203367,39.7102308,0
          </coordinates>
        </Point>
      </Placemark>
      <Placemark>
        <name>6月24日 6時19分</name>
        <description><![CDATA[目撃情報（県道）<br>幼獣1頭<br>軽自動車と接触事故<br>クマはその後逃げた]]></description>
        <styleUrl>#icon-1899-0288D1</styleUrl>
        <Point>
          <coordinates>
            140.9461791,39.6195166,0
          </coordinates>
        </Point>
      </Placemark>
      <Placemark>
        <name>6月25日 8時20分</name>
        <description><![CDATA[付近での目撃情報<br>成獣1頭]]></description>
        <styleUrl>#icon-1899-0288D1</styleUrl>
        <Point>
          <coordinates>
            140.9397651,39.7641648,0
          </coordinates>
        </Point>
      </Placemark>
      <Placemark>
        <name>6月26日 5時25分</name>
        <description><![CDATA[付近での目撃情報<br>幼獣１頭（80㎝）]]></description>
        <styleUrl>#icon-1899-0288D1</styleUrl>
        <Point>
          <coordinates>
            141.0134861,39.6953621,0
          </coordinates>
        </Point>
      </Placemark>
      <Placemark>
        <name>6月26日 6時30分</name>
        <description><![CDATA[付近での目撃情報<br>幼獣1頭]]></description>
        <styleUrl>#icon-1899-0288D1</styleUrl>
        <Point>
          <coordinates>
            140.9552853,39.6729898,0
          </coordinates>
        </Point>
      </Placemark>
      <Placemark>
        <name>6月26日 9時35分</name>
        <description><![CDATA[付近での目撃情報<br>成獣1頭]]></description>
        <styleUrl>#icon-1899-0288D1</styleUrl>
        <Point>
          <coordinates>
            140.9444465,39.7874779,0
          </coordinates>
        </Point>
      </Placemark>
      <Placemark>
        <name>6月26日 11時45分</name>
        <description><![CDATA[付近での目撃情報<br>幼獣1頭]]></description>
        <styleUrl>#icon-1899-0288D1</styleUrl>
        <Point>
          <coordinates>
            140.9470226,39.6707689,0
          </coordinates>
        </Point>
      </Placemark>
      <Placemark>
        <name>6月28日 12時30分</name>
        <description><![CDATA[付近での目撃情報<br>成獣1頭]]></description>
        <styleUrl>#icon-1899-0288D1</styleUrl>
        <Point>
          <coordinates>
            140.8732647,39.8247884,0
          </coordinates>
        </Point>
      </Placemark>
      <Placemark>
        <name>6月28日 16時15分</name>
        <description><![CDATA[付近での目撃情報<br>成獣1頭]]></description>
        <styleUrl>#icon-1899-0288D1</styleUrl>
        <Point>
          <coordinates>
            141.0106105,39.6957128,0
          </coordinates>
        </Point>
      </Placemark>
      <Placemark>
        <name>6月28日 18時50分</name>
        <description><![CDATA[付近での目撃情報<br>親子グマ（成獣1頭、幼獣2頭）]]></description>
        <styleUrl>#icon-1899-0288D1</styleUrl>
        <Point>
          <coordinates>
            140.9690718,39.751224,0
          </coordinates>
        </Point>
      </Placemark>
      <Placemark>
        <name>6月29日 18時25分</name>
        <description><![CDATA[付近での目撃情報<br>成獣1頭]]></description>
        <styleUrl>#icon-1899-0288D1</styleUrl>
        <Point>
          <coordinates>
            141.0117484,39.7054484,0
          </coordinates>
        </Point>
      </Placemark>
      <Placemark>
        <name>6月30日 14時55分</name>
        <description><![CDATA[付近での目撃情報<br>成獣１頭]]></description>
        <styleUrl>#icon-1899-0288D1</styleUrl>
        <Point>
          <coordinates>
            141.0089535,39.6915297,0
          </coordinates>
        </Point>
      </Placemark>
      <Placemark>
        <name>7月2日 12時30分</name>
        <description><![CDATA[付近での目撃情報<br>親子グマ（成獣1頭、幼獣1頭）]]></description>
        <styleUrl>#icon-1899-0288D1</styleUrl>
        <Point>
          <coordinates>
            140.9529293,39.732401,0
          </coordinates>
        </Point>
      </Placemark>
      <Placemark>
        <name>7月2日 15時15分</name>
        <description><![CDATA[付近での目撃情報<br>成獣1頭]]></description>
        <styleUrl>#icon-1899-0288D1</styleUrl>
        <Point>
          <coordinates>
            141.0118874,39.6943258,0
          </coordinates>
        </Point>
      </Placemark>
      <Placemark>
        <name>7月2日 15時35分</name>
        <description><![CDATA[付近での目撃情報<br>成獣1頭]]></description>
        <styleUrl>#icon-1899-0288D1</styleUrl>
        <Point>
          <coordinates>
            141.0116234,39.6909911,0
          </coordinates>
        </Point>
      </Placemark>
      <Placemark>
        <name>7月2日 22時30分</name>
        <description><![CDATA[付近での目撃情報<br>成獣1頭]]></description>
        <styleUrl>#icon-1899-0288D1</styleUrl>
        <Point>
          <coordinates>
            140.9606535,39.7705828,0
          </coordinates>
        </Point>
      </Placemark>
      <Placemark>
        <name>7月3日 6時30分</name>
        <description><![CDATA[付近での目撃情報<br>成獣1頭]]></description>
        <styleUrl>#icon-1899-0288D1</styleUrl>
        <Point>
          <coordinates>
            140.9485563,39.6393738,0
          </coordinates>
        </Point>
      </Placemark>
      <Placemark>
        <name>7月3日 6時10分</name>
        <description><![CDATA[付近での目撃情報<br>成獣1頭]]></description>
        <styleUrl>#icon-1899-0288D1</styleUrl>
        <Point>
          <coordinates>
            140.9669543,39.7249271,0
          </coordinates>
        </Point>
      </Placemark>
      <Placemark>
        <name>7月3日 13時40分</name>
        <description>付近での目撃　成獣1頭</description>
        <styleUrl>#icon-1899-0288D1</styleUrl>
        <Point>
          <coordinates>
            141.0119208,39.703727,0
          </coordinates>
        </Point>
      </Placemark>
      <Placemark>
        <name>7月4日 8時30分</name>
        <description><![CDATA[付近での目撃情報<br>親子連れ　子1頭]]></description>
        <styleUrl>#icon-1899-0288D1</styleUrl>
        <Point>
          <coordinates>
            140.9661876,39.6804629,0
          </coordinates>
        </Point>
      </Placemark>
      <Placemark>
        <name>7月5日 0時00分</name>
        <description><![CDATA[付近での目撃情報<br>成獣1頭]]></description>
        <styleUrl>#icon-1899-0288D1</styleUrl>
        <Point>
          <coordinates>
            140.9502024,39.77634,0
          </coordinates>
        </Point>
      </Placemark>
      <Placemark>
        <name>7月5日 17時30分</name>
        <description>付近での目撃　成獣1頭</description>
        <styleUrl>#icon-1899-0288D1</styleUrl>
        <Point>
          <coordinates>
            141.0119181,39.7039106,0
          </coordinates>
        </Point>
      </Placemark>
      <Placemark>
        <name>7月5日 14時05分</name>
        <description><![CDATA[付近での目撃情報<br>幼獣1頭]]></description>
        <styleUrl>#icon-1899-0288D1</styleUrl>
        <Point>
          <coordinates>
            140.9713945,39.6683724,0
          </coordinates>
        </Point>
      </Placemark>
      <Placemark>
        <name>7月6日 13時05分</name>
        <description><![CDATA[付近での目撃情報<br>幼獣1頭]]></description>
        <styleUrl>#icon-1899-0288D1</styleUrl>
        <Point>
          <coordinates>
            141.0135474,39.7008651,0
          </coordinates>
        </Point>
      </Placemark>
      <Placemark>
        <name>7月6日 10時30分</name>
        <description><![CDATA[付近での目撃情報<br>幼獣1頭<br>南側へ移動]]></description>
        <styleUrl>#icon-1899-0288D1</styleUrl>
        <Point>
          <coordinates>
            140.9875824,39.6731544,0
          </coordinates>
        </Point>
      </Placemark>
      <Placemark>
        <name>7月7日 19時05分</name>
        <description><![CDATA[付近での目撃情報<br>成獣１頭<br>北上していった]]></description>
        <styleUrl>#icon-1899-0288D1</styleUrl>
        <Point>
          <coordinates>
            140.9643507,39.7578609,0
          </coordinates>
        </Point>
      </Placemark>
      <Placemark>
        <name>7月7日 19時34分</name>
        <description><![CDATA[付近での目撃情報<br>成獣1頭]]></description>
        <styleUrl>#icon-1899-0288D1</styleUrl>
        <Point>
          <coordinates>
            140.9616098,39.7609962,0
          </coordinates>
        </Point>
      </Placemark>
      <Placemark>
        <name>7月7日 4時00分</name>
        <description><![CDATA[付近での目撃情報<br>成獣1頭]]></description>
        <styleUrl>#icon-1899-0288D1</styleUrl>
        <Point>
          <coordinates>
            140.9623841,39.7697028,0
          </coordinates>
        </Point>
      </Placemark>
      <Placemark>
        <name>7月8日 23時38分</name>
        <description><![CDATA[付近での目撃情報<br>成獣1頭]]></description>
        <styleUrl>#icon-1899-0288D1</styleUrl>
        <Point>
          <coordinates>
            140.9610215,39.7675214,0
          </coordinates>
        </Point>
      </Placemark>
      <Placemark>
        <name>7月9日 7時15分</name>
        <description><![CDATA[付近での目撃情報<br>成獣1頭]]></description>
        <styleUrl>#icon-1899-0288D1</styleUrl>
        <Point>
          <coordinates>
            140.9786911,39.7372162,0
          </coordinates>
        </Point>
      </Placemark>
      <Placemark>
        <name>7月9日 15時45分</name>
        <description><![CDATA[付近での目撃情報<br>成獣1頭]]></description>
        <styleUrl>#icon-1899-0288D1</styleUrl>
        <Point>
          <coordinates>
            140.9640482,39.7454214,0
          </coordinates>
        </Point>
      </Placemark>
      <Placemark>
        <name>7月9日 18時10分</name>
        <description><![CDATA[付近での目撃情報<br>成獣1頭]]></description>
        <styleUrl>#icon-1899-0288D1</styleUrl>
        <Point>
          <coordinates>
            141.0119309,39.7009946,0
          </coordinates>
        </Point>
      </Placemark>
      <Placemark>
        <name>7月11日 1時20分</name>
        <description><![CDATA[付近での目撃情報<br>成獣1頭]]></description>
        <styleUrl>#icon-1899-0288D1</styleUrl>
        <Point>
          <coordinates>
            140.9548846,39.7760279,0
          </coordinates>
        </Point>
      </Placemark>
      <Placemark>
        <name>7月12日 11時55分</name>
        <description><![CDATA[付近での目撃情報<br>成獣1頭]]></description>
        <styleUrl>#icon-1899-0288D1</styleUrl>
        <Point>
          <coordinates>
            141.0132299,39.7009555,0
          </coordinates>
        </Point>
      </Placemark>
      <Placemark>
        <name>7月14日 6時57分</name>
        <description><![CDATA[付近での目撃情報<br>成獣1頭]]></description>
        <styleUrl>#icon-1899-0288D1</styleUrl>
        <Point>
          <coordinates>
            140.9059476,39.681452,0
          </coordinates>
        </Point>
      </Placemark>
      <Placemark>
        <name>7月14日 6時57分</name>
        <description><![CDATA[付近での目撃情報<br>幼獣１頭]]></description>
        <styleUrl>#icon-1899-0288D1</styleUrl>
        <Point>
          <coordinates>
            141.0183323,39.710158,0
          </coordinates>
        </Point>
      </Placemark>
      <Placemark>
        <name>7月14日 21時50分</name>
        <description><![CDATA[付近での目撃情報<br>成獣1頭]]></description>
        <styleUrl>#icon-1899-0288D1</styleUrl>
        <Point>
          <coordinates>
            140.9549567,39.7760751,0
          </coordinates>
        </Point>
      </Placemark>
      <Placemark>
        <name>7月15日 11時22分</name>
        <description><![CDATA[付近での目撃情報<br>幼獣1頭]]></description>
        <styleUrl>#icon-1899-0288D1</styleUrl>
        <Point>
          <coordinates>
            141.0096776,39.7100346,0
          </coordinates>
        </Point>
      </Placemark>
      <Placemark>
        <name>7月15日 18時30分</name>
        <description><![CDATA[付近での目撃情報<br>親子連れ　子１頭]]></description>
        <styleUrl>#icon-1899-0288D1</styleUrl>
        <Point>
          <coordinates>
            140.952995,39.7324372,0
          </coordinates>
        </Point>
      </Placemark>
      <Placemark>
        <name>7月16日 18時30分</name>
        <description><![CDATA[付近での目撃情報<br>親子連れ　子１頭]]></description>
        <styleUrl>#icon-1899-0288D1</styleUrl>
        <Point>
          <coordinates>
            140.9530501,39.7323992,0
          </coordinates>
        </Point>
      </Placemark>
      <Placemark>
        <name>7月16日 22時20分</name>
        <description><![CDATA[付近での目撃情報<br>成獣1頭]]></description>
        <styleUrl>#icon-1899-0288D1</styleUrl>
        <Point>
          <coordinates>
            141.0110423,39.7106552,0
          </coordinates>
        </Point>
      </Placemark>
      <Placemark>
        <name>7月19日 16時30分</name>
        <description><![CDATA[付近での目撃情報<br>成獣1頭]]></description>
        <styleUrl>#icon-1899-0288D1</styleUrl>
        <Point>
          <coordinates>
            140.9838711,39.6873619,0
          </coordinates>
        </Point>
      </Placemark>
      <Placemark>
        <name>7月19日 17時50分</name>
        <description><![CDATA[付近での目撃情報<br>成獣1頭]]></description>
        <styleUrl>#icon-1899-0288D1</styleUrl>
        <Point>
          <coordinates>
            140.9922416,39.6885972,0
          </coordinates>
        </Point>
      </Placemark>
      <Placemark>
        <name>7月19日 17時52分</name>
        <description><![CDATA[付近での目撃情報<br>成獣1頭]]></description>
        <styleUrl>#icon-1899-0288D1</styleUrl>
        <Point>
          <coordinates>
            140.9946367,39.6886055,0
          </coordinates>
        </Point>
      </Placemark>
      <Placemark>
        <name>7月30日 16時20分</name>
        <description><![CDATA[付近での目撃情報<br>成獣1頭]]></description>
        <styleUrl>#icon-1899-0288D1</styleUrl>
        <Point>
          <coordinates>
            140.9080438,39.7102351,0
          </coordinates>
        </Point>
      </Placemark>
      <Placemark>
        <name>8月4日 4時07分</name>
        <description><![CDATA[付近での目撃情報<br>成獣1頭]]></description>
        <styleUrl>#icon-1899-0288D1</styleUrl>
        <Point>
          <coordinates>
            140.9733294,39.7171109,0
          </coordinates>
        </Point>
      </Placemark>
      <Placemark>
        <name>8月4日 17時15分</name>
        <description><![CDATA[付近での目撃情報<br>親子連れ　子2頭]]></description>
        <styleUrl>#icon-1899-0288D1</styleUrl>
        <Point>
          <coordinates>
            140.9709684,39.7603947,0
          </coordinates>
        </Point>
      </Placemark>
      <Placemark>
        <name>8月4日 19時05分</name>
        <description><![CDATA[付近での目撃情報<br>成獣１頭　南から北へ道路を横断]]></description>
        <styleUrl>#icon-1899-0288D1</styleUrl>
        <Point>
          <coordinates>
            140.9806194,39.7247307,0
          </coordinates>
        </Point>
      </Placemark>
      <Placemark>
        <name>8月6日 15時30分</name>
        <description><![CDATA[付近での目撃情報<br>成獣1頭]]></description>
        <styleUrl>#icon-1899-0288D1</styleUrl>
        <Point>
          <coordinates>
            140.9552305,39.7389421,0
          </coordinates>
        </Point>
      </Placemark>
      <Placemark>
        <name>8月8日 17時20分</name>
        <description><![CDATA[付近での目撃情報<br>親子連れ　子2頭]]></description>
        <styleUrl>#icon-1899-0288D1</styleUrl>
        <Point>
          <coordinates>
            140.9590672,39.7331917,0
          </coordinates>
        </Point>
      </Placemark>
      <Placemark>
        <name>8月12日 13時50分</name>
        <description><![CDATA[付近での目撃情報<br>成獣１頭　南側へ道路を横断]]></description>
        <styleUrl>#icon-1899-0288D1</styleUrl>
        <Point>
          <coordinates>
            140.9199029,39.6884018,0
          </coordinates>
        </Point>
      </Placemark>
      <Placemark>
        <name>8月12日 18時56分</name>
        <description><![CDATA[付近での目撃情報<br>成獣１頭]]></description>
        <styleUrl>#icon-1899-0288D1</styleUrl>
        <Point>
          <coordinates>
            140.9454232,39.7885031,0
          </coordinates>
        </Point>
      </Placemark>
      <Placemark>
        <name>8月13日 15時15分</name>
        <description><![CDATA[付近での目撃情報<br>成獣1頭]]></description>
        <styleUrl>#icon-1899-0288D1</styleUrl>
        <Point>
          <coordinates>
            140.9525,39.7360916,0
          </coordinates>
        </Point>
      </Placemark>
      <Placemark>
        <name>8月13日 17時40分</name>
        <description><![CDATA[付近での目撃情報<br>幼獣1頭]]></description>
        <styleUrl>#icon-1899-0288D1</styleUrl>
        <Point>
          <coordinates>
            140.9730528,39.6636932,0
          </coordinates>
        </Point>
      </Placemark>
      <Placemark>
        <name>8月17日 9時20分</name>
        <description><![CDATA[付近での目撃情報<br>成獣1頭]]></description>
        <styleUrl>#icon-1899-0288D1</styleUrl>
        <Point>
          <coordinates>
            140.9633686,39.6549778,0
          </coordinates>
        </Point>
      </Placemark>
      <Placemark>
        <name>8月17日 15時10分</name>
        <description><![CDATA[付近での目撃情報<br>親子連れ　子1頭]]></description>
        <styleUrl>#icon-1899-0288D1</styleUrl>
        <Point>
          <coordinates>
            140.9441835,39.72181,0
          </coordinates>
        </Point>
      </Placemark>
      <Placemark>
        <name>8月18日 20時00分</name>
        <description><![CDATA[付近での目撃情報<br>成獣1頭]]></description>
        <styleUrl>#icon-1899-0288D1</styleUrl>
        <Point>
          <coordinates>
            140.9582701,39.6946796,0
          </coordinates>
        </Point>
      </Placemark>
      <Placemark>
        <name>8月21日 7時50分</name>
        <description><![CDATA[付近での目撃情報<br>成獣1頭]]></description>
        <styleUrl>#icon-1899-0288D1</styleUrl>
        <Point>
          <coordinates>
            140.97456,39.7202933,0
          </coordinates>
        </Point>
      </Placemark>
      <Placemark>
        <name>8月22日 17時20分</name>
        <description><![CDATA[付近での目撃情報<br>幼獣1頭]]></description>
        <styleUrl>#icon-1899-0288D1</styleUrl>
        <Point>
          <coordinates>
            140.9709885,39.7607191,0
          </coordinates>
        </Point>
      </Placemark>
      <Placemark>
        <name>8月24日 17時05分</name>
        <description><![CDATA[付近での目撃情報<br>成獣1頭]]></description>
        <styleUrl>#icon-1899-0288D1</styleUrl>
        <Point>
          <coordinates>
            140.9291928,39.6388574,0
          </coordinates>
        </Point>
      </Placemark>
      <Placemark>
        <name>8月25日 ７時00分</name>
        <description><![CDATA[付近での目撃情報<br>成獣1頭<br>西側へ移動]]></description>
        <styleUrl>#icon-1899-0288D1</styleUrl>
        <Point>
          <coordinates>
            140.9656389,39.7009253,0
          </coordinates>
        </Point>
      </Placemark>
      <Placemark>
        <name>8月29日 6時40分</name>
        <description><![CDATA[付近での目撃情報<br>成獣1頭]]></description>
        <styleUrl>#icon-1899-0288D1</styleUrl>
        <Point>
          <coordinates>
            140.9735686,39.7841078,0
          </coordinates>
        </Point>
      </Placemark>
      <Placemark>
        <name>8月29日 10時30分</name>
        <description>人身被害</description>
        <styleUrl>#icon-1899-FFEA00</styleUrl>
        <Point>
          <coordinates>
            140.9456195,39.7848859,0
          </coordinates>
        </Point>
      </Placemark>
      <Placemark>
        <name>8月30日 5時58分</name>
        <description><![CDATA[付近での目撃情報<br>成獣1頭]]></description>
        <styleUrl>#icon-1899-0288D1</styleUrl>
        <Point>
          <coordinates>
            140.9358405,39.6754555,0
          </coordinates>
        </Point>
      </Placemark>
    </Folder>
    <Folder>
      <name>Ｒ8クマ出没情報（Ｒ8.4～5月）</name>
      <Placemark>
        <name>4月7日 11時30分</name>
        <description><![CDATA[付近での目撃情報<br>亜成獣 1頭]]></description>
        <styleUrl>#icon-1899-0288D1</styleUrl>
        <Point>
          <coordinates>
            140.9295593,39.6706302,0
          </coordinates>
        </Point>
      </Placemark>
      <Placemark>
        <name>4月9日 12時40分</name>
        <description><![CDATA[付近での目撃情報<br>幼獣1頭]]></description>
        <styleUrl>#icon-1899-0288D1</styleUrl>
        <Point>
          <coordinates>
            140.9496802,39.6433693,0
          </coordinates>
        </Point>
      </Placemark>
      <Placemark>
        <name>4月13日 9時20分</name>
        <description><![CDATA[付近での目撃情報<br>幼獣1頭]]></description>
        <styleUrl>#icon-1899-0288D1</styleUrl>
        <Point>
          <coordinates>
            140.9497488,39.6443462,0
          </coordinates>
        </Point>
      </Placemark>
      <Placemark>
        <name>4月15日 11時52分</name>
        <description><![CDATA[付近での目撃情報<br>親子熊2頭]]></description>
        <styleUrl>#icon-1899-0288D1</styleUrl>
        <Point>
          <coordinates>
            140.9837308,39.7870043,0
          </coordinates>
        </Point>
      </Placemark>
      <Placemark>
        <name>4月16日 13時50分</name>
        <description><![CDATA[付近での目撃情報<br>成獣1頭]]></description>
        <styleUrl>#icon-1899-0288D1</styleUrl>
        <Point>
          <coordinates>
            140.9471205,39.7795101,0
          </coordinates>
        </Point>
      </Placemark>
      <Placemark>
        <name>4月17日 10時05分</name>
        <description><![CDATA[付近での目撃情報<br>成獣1頭]]></description>
        <styleUrl>#icon-1899-0288D1</styleUrl>
        <Point>
          <coordinates>
            140.8726255,39.8265117,0
          </coordinates>
        </Point>
      </Placemark>
      <Placemark>
        <name>4月25日 7時45分</name>
        <description><![CDATA[付近での目撃情報<br>成獣1頭]]></description>
        <styleUrl>#icon-1899-0288D1</styleUrl>
        <Point>
          <coordinates>
            140.9676867,39.7067381,0
          </coordinates>
        </Point>
      </Placemark>
      <Placemark>
        <name>4月25日 10時10分</name>
        <description><![CDATA[付近目撃情報<br>成獣1頭]]></description>
        <styleUrl>#icon-1899-0288D1</styleUrl>
        <Point>
          <coordinates>
            141.003712,39.7543989,0
          </coordinates>
        </Point>
      </Placemark>
      <Placemark>
        <name>4月27日 5時00分</name>
        <description><![CDATA[付近での目撃情報<br>成獣1頭]]></description>
        <styleUrl>#icon-1899-0288D1</styleUrl>
        <Point>
          <coordinates>
            140.9482908,39.6329687,0
          </coordinates>
        </Point>
      </Placemark>
      <Placemark>
        <name>4月28日 9時00分</name>
        <description><![CDATA[付近での目撃情報<br>幼獣1頭<br>道路を西側に横断]]></description>
        <styleUrl>#icon-1899-0288D1</styleUrl>
        <Point>
          <coordinates>
            141.0124472,39.7031815,0
          </coordinates>
        </Point>
      </Placemark>
      <Placemark>
        <name>4月30日 10時00分</name>
        <description><![CDATA[付近での目撃情報<br>成獣1頭]]></description>
        <styleUrl>#icon-1899-0288D1</styleUrl>
        <Point>
          <coordinates>
            140.8726631,39.8266971,0
          </coordinates>
        </Point>
      </Placemark>
      <Placemark>
        <name>4月30日 13時00分</name>
        <description><![CDATA[付近での目撃情報<br>成獣1頭]]></description>
        <styleUrl>#icon-1899-0288D1</styleUrl>
        <Point>
          <coordinates>
            140.8705442,39.8273768,0
          </coordinates>
        </Point>
      </Placemark>
      <Placemark>
        <name>5月4日 12時00分</name>
        <description><![CDATA[付近での目撃情報<br>幼獣1頭]]></description>
        <styleUrl>#icon-1899-0288D1</styleUrl>
        <Point>
          <coordinates>
            140.9733521,39.6684716,0
          </coordinates>
        </Point>
      </Placemark>
      <Placemark>
        <name>5月4日 16時18分</name>
        <description><![CDATA[付近での目撃情報<br>成獣1頭]]></description>
        <styleUrl>#icon-1899-0288D1</styleUrl>
        <Point>
          <coordinates>
            141.0077138,39.7058924,0
          </coordinates>
        </Point>
      </Placemark>
      <Placemark>
        <name>5月17日 12時20分</name>
        <description><![CDATA[付近での目撃情報<br>成獣1頭]]></description>
        <styleUrl>#icon-1899-0288D1</styleUrl>
        <Point>
          <coordinates>
            140.8938823,39.6897306,0
          </coordinates>
        </Point>
      </Placemark>
      <Placemark>
        <name>5月17日 19時00分</name>
        <description><![CDATA[付近での目撃情報<br>成獣1頭]]></description>
        <styleUrl>#icon-1899-0288D1</styleUrl>
        <Point>
          <coordinates>
            140.9844672,39.7078565,0
          </coordinates>
        </Point>
      </Placemark>
      <Placemark>
        <name>5月18日 11時30分</name>
        <description><![CDATA[付近での目撃情報<br>親子連れクマ2頭（子グマ1頭）]]></description>
        <styleUrl>#icon-1899-0288D1</styleUrl>
        <Point>
          <coordinates>
            140.957908,39.7053221,0
          </coordinates>
        </Point>
      </Placemark>
      <Placemark>
        <name>5月18日 15時20分</name>
        <description><![CDATA[付近での目撃情報<br>成獣1頭]]></description>
        <styleUrl>#icon-1899-0288D1</styleUrl>
        <Point>
          <coordinates>
            140.9765032,39.7631329,0
          </coordinates>
        </Point>
      </Placemark>
      <Placemark>
        <name>5月21日 7時25分</name>
        <description><![CDATA[付近での目撃情報<br>成獣1頭<br>道路を南側に横断して林の中へ逃げた]]></description>
        <styleUrl>#icon-1899-0288D1</styleUrl>
        <Point>
          <coordinates>
            141.007773,39.7069411,0
          </coordinates>
        </Point>
      </Placemark>
      <Placemark>
        <name>5月23日 8時40分</name>
        <description><![CDATA[付近での目撃情報<br>成獣1頭]]></description>
        <styleUrl>#icon-1899-0288D1</styleUrl>
        <Point>
          <coordinates>
            140.9696865,39.6331188,0
          </coordinates>
        </Point>
      </Placemark>
      <Placemark>
        <name>5月23日 12時00分</name>
        <description><![CDATA[付近での目撃情報<br>成獣1頭]]></description>
        <styleUrl>#icon-1899-0288D1</styleUrl>
        <Point>
          <coordinates>
            140.9690985,39.6610305,0
          </coordinates>
        </Point>
      </Placemark>
      <Placemark>
        <name>5月23日 12時15分</name>
        <description><![CDATA[付近での目撃情報<br>成獣1頭]]></description>
        <styleUrl>#icon-1899-0288D1</styleUrl>
        <Point>
          <coordinates>
            140.9753561,39.668054,0
          </coordinates>
        </Point>
      </Placemark>
      <Placemark>
        <name>5月23日 13時50分</name>
        <description><![CDATA[付近での目撃情報<br>成獣1頭]]></description>
        <styleUrl>#icon-1899-0288D1</styleUrl>
        <Point>
          <coordinates>
            140.9781039,39.6903162,0
          </coordinates>
        </Point>
      </Placemark>
      <Placemark>
        <name>5月23日 14時20分</name>
        <description><![CDATA[付近での目撃情報<br>成獣1頭<br>東方面へ移動中]]></description>
        <styleUrl>#icon-1899-0288D1</styleUrl>
        <Point>
          <coordinates>
            140.9824454,39.6878442,0
          </coordinates>
        </Point>
      </Placemark>
      <Placemark>
        <name>5月23日 18時05分</name>
        <description><![CDATA[付近での目撃情報<br>成獣1頭<br>盛岡側へ移動中]]></description>
        <styleUrl>#icon-1899-0288D1</styleUrl>
        <Point>
          <coordinates>
            141.0114569,39.691067,0
          </coordinates>
        </Point>
      </Placemark>
      <Placemark>
        <name>5月23日 18時40分</name>
        <description><![CDATA[付近での目撃情報<br>成獣1頭]]></description>
        <styleUrl>#icon-1899-0288D1</styleUrl>
        <Point>
          <coordinates>
            141.0195671,39.6958888,0
          </coordinates>
        </Point>
      </Placemark>
      <Placemark>
        <name>5月27日 12時55分</name>
        <description><![CDATA[付近での目撃情報<br>成獣1頭]]></description>
        <styleUrl>#icon-1899-0288D1</styleUrl>
        <Point>
          <coordinates>
            140.9100863,39.6856132,0
          </coordinates>
        </Point>
      </Placemark>
      <Placemark>
        <name>5月28日 17時35分</name>
        <description><![CDATA[付近での目撃情報<br>幼獣1頭]]></description>
        <styleUrl>#icon-1899-0288D1</styleUrl>
        <Point>
          <coordinates>
            140.9440996,39.6911964,0
          </coordinates>
        </Point>
      </Placemark>
      <Placemark>
        <name>5月31日 14時50分</name>
        <description><![CDATA[付近での目撃情報<br>幼獣1頭（大きさ50cmくらい）]]></description>
        <styleUrl>#icon-1899-0288D1</styleUrl>
        <Point>
          <coordinates>
            140.9979336,39.6640599,0
          </coordinates>
        </Point>
      </Placemark>
    </Folder>
  </Document>
</kml>
